QZS-1R                  
1 49336U 21096A   24049.45626431 -.00000314  00000+0  00000+0 0  9990
2 49336  35.6954  92.3478 0746663 268.9938  82.1636  1.00301248  8484
